#aV2008 11 30  0  0   .00000000      96 DD+AD WGS84 FIT  NGA
## 1508       .00000000   900.00000000 54800  .0000000000000
+   31     2  3  4  5  6  7  8  9 10 11 12 13 14 15 16 17 18
+         19 20 21 22 23 24 25 26 27 28 29 30 31 32  0  0  0
+          0  0  0  0  0  0  0  0  0  0  0  0  0  0  0  0  0
+          0  0  0  0  0  0  0  0  0  0  0  0  0  0  0  0  0
+          0  0  0  0  0  0  0  0  0  0  0  0  0  0  0  0  0
++         0  0  0  0  0  0  0  0  0  0  0  0  0  0  0  0  0
++         0  0  0  0  0  0  0  0  0  0  0  0  0  0  0  0  0
++         0  0  0  0  0  0  0  0  0  0  0  0  0  0  0  0  0
++         0  0  0  0  0  0  0  0  0  0  0  0  0  0  0  0  0
++         0  0  0  0  0  0  0  0  0  0  0  0  0  0  0  0  0
%c cc cc ccc ccc cccc cccc cccc cccc ccccc ccccc ccccc ccccc
%c cc cc ccc ccc cccc cccc cccc cccc ccccc ccccc ccccc ccccc
%f  0.0000000  0.000000000  0.00000000000  0.000000000000000
%f  0.0000000  0.000000000  0.00000000000  0.000000000000000
%i    0    0    0    0      0      0      0      0         0
%i    0    0    0    0      0      0      0      0         0
/*      NGA, ST. LOUIS,MO.                                  
/*   EPHEMERIS COMPUTED FROM  3 DAYS OF DATA                
/* CCCCCCCCCCCCCCCCCCCCCCCCCCCCCCCCCCCCCCCCCCCCCCCCCCCCCCCCC
/* CCCCCCCCCCCCCCCCCCCCCCCCCCCCCCCCCCCCCCCCCCCCCCCCCCCCCCCCC
*  2008 11 30 16 15   .00000000                                                 
P  2 -13882.237102 -11723.564917 -19620.264201    169.870945                    
V  2   1994.025352 -24535.354253  12958.363528      -.023634                    
P  3  24604.986128  10179.076478   2299.531550    318.336937                    
V  3   1322.870011   4680.948100 -30547.955853       .052073                    
P  4  -6817.687547 -23059.731915 -10973.408949   -249.330117                    
V  4   3901.861293 -13746.643611  27124.952128      -.125106                    
P  5 -21140.520471  15816.702886  -2478.448216   -398.430709                    
V  5  -4211.508117  -1330.736260  31260.174214       .042858                    
P  6  22773.972872  13660.743236   -602.571886    132.765000                    
V  6  -2694.362974   2698.746125 -31106.031331      -.084266                    
P  7   7411.171027 -23739.369123  -9191.988390     23.442359                    
V  7   1997.021640  11769.864902 -28954.033279       .001204                    
P  8     67.753519 -25996.924370   3842.054140   -180.140752                    
V  8   2885.957190  -4749.793098 -32151.289689      -.015390                    
P  9 -13502.107963  10298.110285  19751.924740     27.415414                    
V  9   -933.078307 -26516.868023  12890.869297       .018330                    
P 10 -21392.996924  -1946.215955 -15980.144785     -7.784633                    
V 10  17132.827708 -10249.155208 -21552.734005      -.004233                    
P 11  13583.642763 -12265.550369  18961.967433     14.383025                    
V 11   6026.931677  24233.980503  11601.333636      -.008835                    
P 12 -23959.366774  11260.880711   1428.188148   -337.171705                    
V 12    276.436223  -3236.221105  31852.311344       .026239                    
P 13   7817.385565 -12241.398785 -22349.425814    279.309046                    
V 13  22826.994929  16227.896607   -904.187337       .014756                    
P 14  12954.883992  19309.171868  13061.772601   -187.925524                    
V 14 -14260.817379  -8027.075679  26138.637022       .048995                    
P 15 -22997.444290  -3574.143042  12863.632707   -219.303038                    
V 15 -12609.372664 -10555.778860 -25504.463123      -.060758                    
P 16  16844.316799   6626.937845 -19452.323662     92.006441                    
V 16 -21678.197544  11967.475485 -14441.230068      -.024630                    
P 17 -10867.297118 -19443.637986  14644.350844     41.291800                    
V 17  16514.661397   8473.662059  23397.099098       .004412                    
P 18 -11056.211125  18100.790493  15969.061852   -107.719667                    
V 18 -19147.163155   6527.868770 -21291.381601       .038199                    
P 19  22202.058177   3953.571526  14269.388174     35.256248                    
V 19  13173.337341  12338.929337 -23807.645110      -.002565                    
P 20  22559.278672 -13868.850160  -1832.691648     97.658898                    
V 20   3535.415934   1880.058138  31310.257608      -.010334                    
P 21  -4626.469495  25467.973228  -4004.349939     40.371150                    
V 21  -3754.865715  -5721.135461 -31012.518709      -.015995                    
P 22   1745.333328  16162.646621  21158.030460    208.680474                    
V 22 -24314.803545  10728.909950  -6295.693530      -.006511                    
P 23  16356.793627  -5908.444191 -20199.869315    381.472199                    
V 23  20934.650508  14471.315298  12485.784059       .010456                    
P 24 -12961.547896  16913.972838 -15879.628849    145.291603                    
V 24    -45.871660 -20440.489161 -21265.777556       .032650                    
P 25   9342.692239 -19648.633186 -14998.402099     64.738278                    
V 25   2875.235113  19476.121320 -23000.252645       .293552                    
P 26 -23327.170893 -10376.518124   7746.274531     21.215268                    
V 26  -7655.324022  -7114.698122 -30087.554601       .041963                    
P 27   1726.199498 -26182.372180  -3123.993177      4.148758                    
V 27   2654.379950   4755.057298 -31750.094153       .032118                    
P 28    113.777362 -16394.499196  21231.778353    -23.679754                    
V 28  23840.941968 -10643.270255  -8839.579543      -.001368                    
P 29  -9387.934219  11990.468231 -21659.025338    -27.434583                    
V 29 -22979.909297 -15557.570423   1376.242861       .020250                    
P 30 -16054.036000  18255.281137 -10958.255403    110.891353                    
V 30 -12987.284821   4356.383784  27262.036713       .022198                    
P 31   8066.574007  21484.845570 -13062.057918    -41.326851                    
V 31  -2838.981873  16854.941935  25666.581837      -.017921                    
P 32  25154.159596  -6420.275968   5453.027619    311.950911                    
V 32  -4897.959292   4943.405783  31020.979519      -.016824                    
EOF
